LEMUR-1                 
1 40044U 14033AL  26162.70217889  .00002154  00000+0  25194-3 0  9997
2 40044  97.7866 312.6298 0049747  96.1527 264.5359 14.85225201644658
LEMUR-2-GREENBERG       
1 42837U 17042N   26162.46705247  .00013082  00000+0  43649-3 0  9992
2 42837  97.3816 343.1197 0009064  33.8606 326.3213 15.31150950487518
LEMUR-2-ANDIS           
1 42838U 17042P   26162.96578632  .00019597  00000+0  58470-3 0  9999
2 42838  97.3675 343.7823 0008616  31.1254 329.0498 15.34640616487652
LEMUR-2-MONSON          
1 42839U 17042Q   26162.00500459  .00012667  00000+0  46797-3 0  9997
2 42839  97.4076 342.6414 0006828  27.7700 332.3903 15.27848617487227
LEMUR-2-FURIAUS         
1 42840U 17042R   26162.45680124  .00014890  00000+0  51338-3 0  9993
2 42840  97.3767 341.0779 0008429  86.5295 273.6910 15.30063384487334
LEMUR-2-PETERG          
1 42841U 17042S   26162.48996125  .00019411  00000+0  59777-3 0  9997
2 42841  97.3985 347.5128 0003709  19.1907 340.9475 15.33668998487568
LEMUR-2-DEMBITZ         
1 42842U 17042T   26162.73845016  .00014174  00000+0  48804-3 0  9998
2 42842  97.3818 344.3768 0007213  46.8214 313.3628 15.30127529487517
LEMUR-2-ZACHARY         
1 42845U 17042W   26162.83183370  .00043427  00000+0  77874-3 0  9992
2 42845  97.3603 354.3572 0003281  53.2541 306.9011 15.49802535488378
LEMUR-2-AMANDA-SVANTE   
1 48269U 21034B   26162.16106586  .00025885  00000+0  78927-3 0  9992
2 48269  97.5765 240.2895 0001546 230.7421 129.3685 15.33932852280134
LEMUR-2-SPECIAL-K       
1 48273U 21034F   26162.77408188  .00136195  00000+0  14852-2 0  9990
2 48273  97.5653 249.2456 0003643 232.3718 127.7210 15.62930778280845
LEMUR-2-EMBRIONOVIS     
1 56970U 23084AQ  26162.86491013  .00012424  00000+0  34053-3 0  9993
2 56970  97.6275 306.8611 0008075 341.3077  18.7869 15.37417029166860
LEMUR-2-DEVERILL-M-T    
1 57391U 23100F   26162.90561082  .00024856  00000+0  63447-3 0  9990
2 57391  99.4479 200.1394 0006860  66.7377 293.4584 15.39493394160433
LEMUR-2-BASS            
1 58259U 23174D   26162.95736728  .00016116  00000+0  36804-3 0  9998
2 58259  97.3850 247.5972 0007359 179.0923 181.0339 15.42919895144551
LEMUR-2-JK0903EM1407    
1 58336U 23174CJ  26162.79074652  .00025699  00000+0  43695-3 0  9999
2 58336  97.3919 253.1102 0005959 135.0332 225.1403 15.51402886144897
LEMUR-2-MJR092620       
1 58340U 23174CN  26162.78233058  .00018229  00000+0  39210-3 0  9999
2 58340  97.3975 252.7125 0007088 133.4041 226.7799 15.44676410144813
LEMUR-2-NIMBUS2000      
1 58899U 24022A   26162.55541061  .00015905  00000+0  40213-3 0  9995
2 58899  97.4121  12.4872 0010140 133.1211 227.0884 15.39817873131409
LEMUR-2-VALHALLA        
1 58900U 24022B   26162.55046247  .00015285  00000+0  39049-3 0  9990
2 58900  97.4118  12.4759 0010714 129.4736 230.7459 15.39502964131400
LEMUR-2-OBA-NI-JESU     
1 58902U 24022D   26162.60877458  .02495421  24271-5  12571-2 0  9992
2 58902  97.3664  27.5729 0006471 226.2338 133.8417 16.20690476132438
LEMUR-2-CAEL            
1 58903U 24022E   26162.82480374  .00016030  00000+0  39253-3 0  9992
2 58903  97.4100  13.6801 0009248 113.2897 246.9324 15.40800032131515
LEMUR-2-JOHNNYTRUONG    
1 59146U 24043BA  26162.95525081  .00037645  00000+0  46450-3 0  9996
2 59146  97.5365 314.3366 0004627 191.7493 168.3656 15.60077132127222
LEMUR-2-TOMATOKECHUP    
1 60471U 24149D   26162.96070568  .00010107  00000+0  29131-3 0  9993
2 60471  97.3800 244.9943 0000941 187.6521 172.4709 15.35920487101361
LEMUR-2-STELLA          
1 60533U 24149BT  26162.78657706  .00010966  00000+0  64754-3 0  9990
2 60533  97.6735 245.2178 0001621  99.3793 260.7620 15.11690092 99684
LEMUR-2-MARHISYAM       
1 60536U 24149BW  26162.76494318  .00010131  00000+0  60755-3 0  9990
2 60536  97.6886 245.6399 0003233 126.9480 233.2046 15.11150731 99660
LEMUR-2-AHMED-ASRAR     
1 60576U 24149DN  26162.73811629  .00010600  00000+0  61072-3 0  9993
2 60576  97.7002 247.6847 0002235  55.3889 304.7552 15.12588501 99740
LEMUR-2-LLOYD           
1 60577U 24149DP  26162.73808281  .00008788  00000+0  55749-3 0  9992
2 60577  97.6752 243.8645 0004726 152.0786 208.0697 15.09133840 99579
LEMUR-2-SQUIRRELCOMM    
1 60578U 24149DQ  26162.67840080  .00005337  00000+0  35953-3 0  9991
2 60578  97.6716 243.6072 0006977  77.7014 282.4994 15.07091230 99579
LEMUR-2-SIERRINI        
1 60579U 24149DR  26162.78733616  .00010652  00000+0  64407-3 0  9992
2 60579  97.6838 245.3556 0005403 182.5364 177.5839 15.10829992 99645
LEMUR-2-WILSON          
1 62694U 25009CP  26162.74105952  .00001787  00000+0  16803-3 0  9996
2 62694  97.7023 241.3012 0004338  68.6431 291.5252 14.95140698 76541
LEMUR-2-STAR-FOX        
1 62696U 25009CR  26162.76487584  .00007272  00000+0  55308-3 0  9992
2 62696  97.6954 244.4125 0003268 125.5133 234.6397 15.02423491 76741
